GLOBALSTAR M001 [-]     
1 25162U 98008A   24069.88885197 -.00000073  00000+0  18069-3 0  9993
2 25162  52.0010 244.5656 0001742  30.0456 121.8601 12.38178739186306
GLOBALSTAR M004 [-]     
1 25163U 98008B   24069.61913858 -.00000072  00000+0  17669-3 0  9995
2 25163  52.0015  31.3911 0003015 346.0574 193.7340 12.63351918202963
GLOBALSTAR M002 [-]     
1 25164U 98008C   24070.40024599 -.00000043  00000+0  66661-3 0  9994
2 25164  52.0037 323.0662 0001844  32.5835 327.5099 11.61498767130247
GLOBALSTAR M003 [-]     
1 25165U 98008D   24069.92079840  .00000025  00000+0  12174-2 0  9997
2 25165  51.9858  14.3886 0008333  79.2088  26.0830 12.11983996176921
GLOBALSTAR M014 [-]     
1 25306U 98023A   24069.78361427 -.00000065  00000+0  22619-3 0  9991
2 25306  51.9815 257.5974 0000716 152.4344 221.5358 11.65465675137028
GLOBALSTAR M006 [-]     
1 25307U 98023B   24069.88104164 -.00000040  00000+0  73129-3 0  9991
2 25307  51.9934 292.4736 0003981   6.4149  16.7761 11.58157319163030
GLOBALSTAR M015 [-]     
1 25308U 98023C   24070.12294293 -.00000136  00000+0 -14183-2 0  9995
2 25308  51.9859   9.0693 0012569 331.8535  41.5515 11.48853025141111
GLOBALSTAR M008 [-]     
1 25309U 98023D   24069.85743178 -.00000052  00000+0  34757-3 0  9991
2 25309  51.9956 104.2279 0002229 271.9917 271.9482 12.36037729180420
